ONEWEB-0628             
1 55169U 23004AF  25274.27392266  .00000276  00000+0  73242-3 0  9997
2 55169  87.8939  42.0821 0002061  80.4479 279.6883 13.12441915134079
ONEWEB-0629             
1 55170U 23004AG  25273.86742598  .00000049  00000+0  94074-4 0  9995
2 55170  87.9076  57.4532 0001546  84.0045 276.1263 13.17650147133436
ONEWEB-0631             
1 55171U 23004AH  25274.05877115  .00000047  00000+0  85753-4 0  9994
2 55171  87.9219  26.8869 0002294 106.4768 253.6617 13.18685343135523
ONEWEB-0709             
1 55172U 23004AJ  25273.94791222 -.00000209  00000+0 -62579-3 0  9998
2 55172  87.8791  72.7263 0002068 119.0361 241.0974 13.11418751131897
ONEWEB-0710             
1 55173U 23004AK  25274.33738794  .00000057  00000+0  11354-3 0  9992
2 55173  87.9069  57.3544 0001840  91.6649 268.4693 13.17648016133493
ONEWEB-0711             
1 55174U 23004AL  25273.84279003 -.00000310  00000+0 -91005-3 0  9996
2 55174  87.8796  72.7156 0002306  79.1404 280.9984 13.11414241131842
ONEWEB-0713             
1 55175U 23004AM  25274.16661821 -.00000603  00000+0 -17368-2 0  9990
2 55175  87.8790  72.6569 0001907  86.5596 273.5750 13.11414755131876
ONEWEB-0715             
1 55176U 23004AN  25274.16153524 -.00000499  00000+0 -14435-2 0  9992
2 55176  87.8786  72.6576 0002208 106.8569 253.2802 13.11414378131910
